{
  "type": "FeatureCollection",
  "features": [
    {
      "type": "Feature",
      "properties": {
        "norad_id": 38068,
        "name": "COSMOS 2251 DEB",
        "group": "cosmos-2251-debris",
        "lat": -23.465549287244972,
        "lon": 130.3534506899864,
        "alt_km": 793.9546939332968,
        "timestamp": "2025-12-15T11:38:37.550178+00:00",
        "meta_object_name": "COSMOS 2251 DEB",
        "meta_object_id": "1993-036BSA",
        "meta_epoch": "2025-11-26T00:12:22.263264",
        "meta_mean_motion": 14.35960004,
        "meta_eccentricity": 0.00240903,
        "meta_inclination": 74.0219,
        "meta_ra_of_asc_node": 338.9788,
        "meta_arg_of_pericenter": 72.1007,
        "meta_mean_anomaly": 288.2769,
        "meta_ephemeris_type": 0,
        "meta_classification_type": "U",
        "meta_norad_cat_id": 38068,
        "meta_element_set_no": 999,
        "meta_rev_at_epoch": 66406,
        "meta_bstar": 0.00028750999,
        "meta_mean_motion_dot": 8.11e-06,
        "meta_mean_motion_ddot": 0,
        "tle_line1": "1 38068U 93036BSA 25330.00859101  .00000811  00000+0  28751-3 0  9998",
        "tle_line2": "2 38068  74.0219 338.9788 0024090  72.1007 288.2769 14.35960004664064"
      },
      "geometry": {
        "type": "Point",
        "coordinates": [
          130.3534506899864,
          -23.465549287244972
        ]
      }
    },
    {
      "type": "Feature",
      "properties": {
        "norad_id": 38197,
        "name": "COSMOS 2251 DEB",
        "group": "cosmos-2251-debris",
        "lat": -28.33734585019663,
        "lon": -179.4048045991362,
        "alt_km": 569.4112907787394,
        "timestamp": "2025-12-15T11:38:37.550187+00:00",
        "meta_object_name": "COSMOS 2251 DEB",
        "meta_object_id": "1993-036BSM",
        "meta_epoch": "2025-12-14T07:00:04.920768",
        "meta_mean_motion": 14.74139747,
        "meta_eccentricity": 0.0125907,
        "meta_inclination": 73.9403,
        "meta_ra_of_asc_node": 354.0006,
        "meta_arg_of_pericenter": 231.0385,
        "meta_mean_anomaly": 127.9518,
        "meta_ephemeris_type": 0,
        "meta_classification_type": "U",
        "meta_norad_cat_id": 38197,
        "meta_element_set_no": 999,
        "meta_rev_at_epoch": 85778,
        "meta_bstar": 0.003963351,
        "meta_mean_motion_dot": 0.00029782,
        "meta_mean_motion_ddot": 0,
        "tle_line1": "1 38197U 93036BSM 25348.29172362  .00029782  00000+0  39634-2 0  9997",
        "tle_line2": "2 38197  73.9403 354.0006 0125907 231.0385 127.9518 14.74139747857785"
      },
      "geometry": {
        "type": "Point",
        "coordinates": [
          -179.4048045991362,
          -28.33734585019663
        ]
      }
    },
    {
      "type": "Feature",
      "properties": {
        "norad_id": 38199,
        "name": "COSMOS 2251 DEB",
        "group": "cosmos-2251-debris",
        "lat": 1.2059555604807513,
        "lon": 58.02592398764505,
        "alt_km": 759.2917061485296,
        "timestamp": "2025-12-15T11:38:37.550197+00:00",
        "meta_object_name": "COSMOS 2251 DEB",
        "meta_object_id": "1993-036BSP",
        "meta_epoch": "2025-12-14T12:46:10.366752",
        "meta_mean_motion": 13.6479649,
        "meta_eccentricity": 0.03697095,
        "meta_inclination": 73.9561,
        "meta_ra_of_asc_node": 59.2441,
        "meta_arg_of_pericenter": 345.3717,
        "meta_mean_anomaly": 13.6916,
        "meta_ephemeris_type": 0,
        "meta_classification_type": "U",
        "meta_norad_cat_id": 38199,
        "meta_element_set_no": 999,
        "meta_rev_at_epoch": 61046,
        "meta_bstar": 0.00058391459,
        "meta_mean_motion_dot": 7.27e-06,
        "meta_mean_motion_ddot": 0,
        "tle_line1": "1 38199U 93036BSP 25348.53206443  .00000727  00000+0  58391-3 0  9994",
        "tle_line2": "2 38199  73.9561  59.2441 0369709 345.3717  13.6916 13.64796490610464"
      },
      "geometry": {
        "type": "Point",
        "coordinates": [
          58.02592398764505,
          1.2059555604807513
        ]
      }
    },
    {
      "type": "Feature",
      "properties": {
        "norad_id": 38208,
        "name": "COSMOS 2251 DEB",
        "group": "cosmos-2251-debris",
        "lat": -69.15720462839133,
        "lon": -57.653406117713494,
        "alt_km": 623.932635126549,
        "timestamp": "2025-12-15T11:38:37.550207+00:00",
        "meta_object_name": "COSMOS 2251 DEB",
        "meta_object_id": "1993-036BSY",
        "meta_epoch": "2025-12-13T17:06:55.631232",
        "meta_mean_motion": 14.83950363,
        "meta_eccentricity": 0.00020433,
        "meta_inclination": 74.0053,
        "meta_ra_of_asc_node": 76.977,
        "meta_arg_of_pericenter": 155.4201,
        "meta_mean_anomaly": 358.2431,
        "meta_ephemeris_type": 0,
        "meta_classification_type": "U",
        "meta_norad_cat_id": 38208,
        "meta_element_set_no": 999,
        "meta_rev_at_epoch": 71173,
        "meta_bstar": 0.0025143391,
        "meta_mean_motion_dot": 0.00020943,
        "meta_mean_motion_ddot": 0,
        "tle_line1": "1 38208U 93036BSY 25347.71314388  .00020943  00000+0  25143-2 0  9992",
        "tle_line2": "2 38208  74.0053  76.9770 0002043 155.4201 358.2431 14.83950363711732"
      },
      "geometry": {
        "type": "Point",
        "coordinates": [
          -57.653406117713494,
          -69.15720462839133
        ]
      }
    },
    {
      "type": "Feature",
      "properties": {
        "norad_id": 38212,
        "name": "COSMOS 2251 DEB",
        "group": "cosmos-2251-debris",
        "lat": 33.26092851362396,
        "lon": -119.59320725200968,
        "alt_km": 569.964071893407,
        "timestamp": "2025-12-15T11:38:37.550217+00:00",
        "meta_object_name": "COSMOS 2251 DEB",
        "meta_object_id": "1993-036BTC",
        "meta_epoch": "2025-12-13T23:14:48.711840",
        "meta_mean_motion": 14.77697426,
        "meta_eccentricity": 0.00923484,
        "meta_inclination": 74.0527,
        "meta_ra_of_asc_node": 74.1891,
        "meta_arg_of_pericenter": 140.8526,
        "meta_mean_anomaly": 219.9379,
        "meta_ephemeris_type": 0,
        "meta_classification_type": "U",
        "meta_norad_cat_id": 38212,
        "meta_element_set_no": 999,
        "meta_rev_at_epoch": 81328,
        "meta_bstar": 0.00051158029,
        "meta_mean_motion_dot": 3.901e-05,
        "meta_mean_motion_ddot": 0,
        "tle_line1": "1 38212U 93036BTC 25347.96861935  .00003901  00000+0  51158-3 0  9990",
        "tle_line2": "2 38212  74.0527  74.1891 0092348 140.8526 219.9379 14.77697426813280"
      },
      "geometry": {
        "type": "Point",
        "coordinates": [
          -119.59320725200968,
          33.26092851362396
        ]
      }
    },
    {
      "type": "Feature",
      "properties": {
        "norad_id": 38220,
        "name": "COSMOS 2251 DEB",
        "group": "cosmos-2251-debris",
        "lat": 73.39049256553372,
        "lon": 136.7263006329147,
        "alt_km": 578.3530524408679,
        "timestamp": "2025-12-15T11:38:37.550227+00:00",
        "meta_object_name": "COSMOS 2251 DEB",
        "meta_object_id": "1993-036BTL",
        "meta_epoch": "2025-12-11T22:01:48.758016",
        "meta_mean_motion": 14.92850575,
        "meta_eccentricity": 0.0004483,
        "meta_inclination": 74.014,
        "meta_ra_of_asc_node": 69.9473,
        "meta_arg_of_pericenter": 50.1596,
        "meta_mean_anomaly": 309.9981,
        "meta_ephemeris_type": 0,
        "meta_classification_type": "U",
        "meta_norad_cat_id": 38220,
        "meta_element_set_no": 999,
        "meta_rev_at_epoch": 71358,
        "meta_bstar": 0.0045219,
        "meta_mean_motion_dot": 0.00047133,
        "meta_mean_motion_ddot": 0,
        "tle_line1": "1 38220U 93036BTL 25345.91792544  .00047133  00000+0  45219-2 0  9996",
        "tle_line2": "2 38220  74.0140  69.9473 0004483  50.1596 309.9981 14.92850575713585"
      },
      "geometry": {
        "type": "Point",
        "coordinates": [
          136.7263006329147,
          73.39049256553372
        ]
      }
    },
    {
      "type": "Feature",
      "properties": {
        "norad_id": 38479,
        "name": "COSMOS 2251 DEB",
        "group": "cosmos-2251-debris",
        "lat": 33.44245366222034,
        "lon": -169.86756799005323,
        "alt_km": 779.1247063052951,
        "timestamp": "2025-12-15T11:38:37.550236+00:00",
        "meta_object_name": "COSMOS 2251 DEB",
        "meta_object_id": "1993-036BTP",
        "meta_epoch": "2025-12-13T19:29:32.997408",
        "meta_mean_motion": 14.3831318,
        "meta_eccentricity": 0.0084157,
        "meta_inclination": 74.007,
        "meta_ra_of_asc_node": 182.3013,
        "meta_arg_of_pericenter": 291.0961,
        "meta_mean_anomaly": 83.9532,
        "meta_ephemeris_type": 0,
        "meta_classification_type": "U",
        "meta_norad_cat_id": 38479,
        "meta_element_set_no": 999,
        "meta_rev_at_epoch": 64703,
        "meta_bstar": 0.0021939338,
        "meta_mean_motion_dot": 6.938e-05,
        "meta_mean_motion_ddot": 0,
        "tle_line1": "1 38479U 93036BTP 25347.81218747  .00006938  00000+0  21939-2 0  9992",
        "tle_line2": "2 38479  74.0070 182.3013 0084157 291.0961  83.9532 14.38313180647034"
      },
      "geometry": {
        "type": "Point",
        "coordinates": [
          -169.86756799005323,
          33.44245366222034
        ]
      }
    }
  ]
}